<?xml version="1.0" encoding="UTF-8"?>
<kml xmlns="http://www.opengis.net/kml/2.2">
<Document>
  <name>Veshalla Hiking Trail</name>
  <Style id="trailStyle">
    <LineStyle>
      <color>ff00ff6a</color> <!-- green -->
      <width>5</width>
    </LineStyle>
  </Style>

  <Placemark>
    <name>Veshalla Trail</name>
    <styleUrl>#trailStyle</styleUrl>
    <LineString>
      <tessellate>1</tessellate>
      <coordinates>
        20.900000,42.046500,0
        20.900232,42.046642,0
        20.900410,42.046811,0
        20.900595,42.046975,0
        20.900815,42.047122,0
        20.901049,42.047295,0
        20.901264,42.047471,0
        20.901492,42.047648,0
        20.901722,42.047820,0
        20.902001,42.048010,0
        20.902293,42.048199,0
        20.902541,42.048392,0
        20.902782,42.048588,0
        20.903041,42.048787,0
        20.903323,42.048980,0
        20.903617,42.049181,0
        20.903928,42.049374,0
        20.904255,42.049562,0
        20.904588,42.049743,0
        20.904922,42.049929,0
        20.905247,42.050115,0
        20.905566,42.050298,0
        20.905876,42.050477,0
        20.906168,42.050661,0
        20.906448,42.050857,0
        20.906705,42.051050,0
        20.906956,42.051251,0
        20.907192,42.051446,0
        20.907415,42.051652,0
        20.907621,42.051859,0
        20.907814,42.052072,0
        20.907985,42.052297,0
        20.908138,42.052508,0
        20.908258,42.052731,0
        20.908364,42.052948,0
        20.908447,42.053163,0
        20.908537,42.053376,0
        20.908605,42.053589,0
        20.908656,42.053811,0
        20.908672,42.054028,0
        20.908671,42.054249,0
        20.908640,42.054465,0
        20.908586,42.054684,0
        20.908509,42.054904,0
        20.908420,42.055119,0
        20.908299,42.055339,0
        20.908168,42.055554,0
        20.908021,42.055766,0
        20.907860,42.055966,0
      </coordinates>
    </LineString>
  </Placemark>
</Document>
</kml>
